     2.100          NAVIGATION                              RINEX VERSION / TYPE
fic2rin                                 01/04/2013 00:32:22 PGM / RUN BY / DATE
                                                            END OF HEADER
20 13  1  3 20  0  0.0  .787233002484D-04  .136424205266D-11  .000000000000D+00
     .105000000000D+03  .657187500000D+02  .557094633799D-08 -.233663655553D+01
     .339746475220D-05  .544906395953D-02  .676512718201D-05  .515356050873D+04
     .417600000000D+06  .113621354103D-06  .216293505511D+01  .000000000000D+00
     .928517440364D+00  .231875000000D+03  .128111225261D+01 -.853642700502D-08
     .297155234851D-09  .100000000000D+01  .172100000000D+04  .000000000000D+00
     .240000000000D+01  .000000000000D+00 -.791624188423D-08  .105000000000D+03
     .410406000000D+06  .400000000000D+01
21 13  1  3 20  0  0.0 -.272373668849D-03 -.227373675443D-11  .000000000000D+00
     .330000000000D+02  .993750000000D+01  .504878173060D-08 -.180087574074D+01
     .324100255966D-06  .196115160361D-01  .985339283943D-05  .515375002861D+04
     .417600000000D+06  .331550836563D-06  .116727339950D+01 -.987201929092D-07
     .931239446684D+00  .165968750000D+03 -.219059678205D+01 -.796390315710D-08
     .245367363393D-09  .100000000000D+01  .172100000000D+04  .000000000000D+00
     .240000000000D+01  .000000000000D+00 -.111758708954D-07  .330000000000D+02
     .410406000000D+06  .400000000000D+01
22 13  1  3 20  0  0.0  .154886394739D-03  .795807864051D-12  .000000000000D+00
     .170000000000D+02  .642500000000D+02  .557916096588D-08  .270383479682D+01
     .328011810780D-05  .614058412611D-02  .615417957306D-05  .515366230011D+04
     .417600000000D+06  .912696123123D-07  .221943080377D+01 -.465661287308D-07
     .925644226832D+00  .243312500000D+03 -.202405737745D+01 -.850142554707D-08
     .184650548579D-09  .100000000000D+01  .172100000000D+04  .000000000000D+00
     .240000000000D+01  .000000000000D+00 -.172294676304D-07  .170000000000D+02
     .410406000000D+06  .400000000000D+01
23 13  1  3 20  0  0.0  .127501785755D-03 -.375166564481D-11  .000000000000D+00
     .440000000000D+02 -.128125000000D+02  .486734560162D-08  .746692467036D+00
    -.594183802605D-06  .813320232555D-02  .583380460739D-05  .515376797485D+04
     .417600000000D+06  .409781932831D-07 -.301047718708D+01  .115483999252D-06
     .957836183893D+00  .261750000000D+03 -.291632630595D+01 -.842249368781D-08
    -.451090218290D-09  .100000000000D+01  .172100000000D+04  .000000000000D+00
     .240000000000D+01  .000000000000D+00 -.204890966415D-07  .440000000000D+02
     .410406000000D+06  .400000000000D+01
25 13  1  3 20  0  0.0  .605038367212D-04  .250111042988D-11  .000000000000D+00
     .940000000000D+02  .200625000000D+02  .431910847963D-08 -.214218527523D+01
     .113993883133D-05  .195296830498D-02  .567175447941D-05  .515360560799D+04
     .417600000000D+06 -.875443220139D-07 -.936476779720D+00  .558793544769D-08
     .971235267093D+00  .277312500000D+03  .596022314996D+00 -.805497837932D-08
     .261439461432D-09  .100000000000D+01  .172100000000D+04  .000000000000D+00
     .240000000000D+01  .000000000000D+00  .512227416039D-08  .940000000000D+02
     .410406000000D+06  .400000000000D+01
26 13  1  3 20  0  0.0 -.151472631842D-03  .136424205266D-10  .000000000000D+00
     .550000000000D+02 -.837500000000D+01  .437411077070D-08  .627417907731D+00
    -.281259417534D-06  .209992561722D-01  .671483576298D-05  .515365569878D+04
     .417600000000D+06 -.230967998505D-06 -.293302378373D+01  .167638063431D-07
     .981042574807D+00  .265781250000D+03  .121336471532D+01 -.838463496799D-08
    -.495377777330D-09  .100000000000D+01  .172100000000D+04  .000000000000D+00
     .240000000000D+01  .000000000000D+00 -.605359673500D-08  .550000000000D+02
     .410406000000D+06  .400000000000D+01
27 13  1  3 20  0  0.0 -.198623631150D-03  .363797880709D-11  .000000000000D+00
     .350000000000D+02  .219062500000D+02  .550130057982D-08  .275890800540D+01
     .112503767014D-05  .567447824869D-02  .567175447941D-05  .515361952019D+04
     .417600000000D+06  .875443220139D-07 -.920528304293D+00 -.335276126862D-07
     .976103953551D+00  .279656250000D+03  .850936884571D+00 -.801961976364D-08
     .337871216549D-09  .100000000000D+01  .172100000000D+04  .000000000000D+00
     .240000000000D+01  .630000000000D+02 -.190921127796D-07  .350000000000D+02
     .410406000000D+06  .400000000000D+01
28 13  1  3 20  0  0.0  .220100861043D-03  .352429196937D-11  .000000000000D+00
     .520000000000D+02  .609375000000D+01  .399588073019D-08  .262963577470D+01
     .229105353355D-06  .186019079993D-01  .576861202717D-05  .515363489342D+04
     .417600000000D+06  .152736902237D-06 -.875111588276D+00 -.175088644028D-06
     .981578851316D+00  .275125000000D+03 -.179803934593D+01 -.764388982726D-08
     .245724521127D-09  .100000000000D+01  .172100000000D+04  .000000000000D+00
     .240000000000D+01  .000000000000D+00 -.107102096081D-07  .520000000000D+02
     .410406000000D+06  .400000000000D+01
29 13  1  3 20  0  0.0  .394226051867D-03  .386535248253D-11  .000000000000D+00
     .590000000000D+02 -.655312500000D+02  .448590114150D-08 -.151846360558D+01
    -.335089862347D-05  .181872164831D-02  .684149563313D-05  .515372094727D+04
     .417600000000D+06 -.633299350739D-07  .165297940134D+00  .204890966415D-07
     .965319162012D+00  .249781250000D+03 -.111181187833D+01 -.811962392921D-08
    -.903609067516D-10  .100000000000D+01  .172100000000D+04  .000000000000D+00
     .240000000000D+01  .000000000000D+00 -.931322574615D-08  .590000000000D+02
     .410406000000D+06  .400000000000D+01
30 13  1  3 20  0  0.0 -.263330992311D-03  .109139364213D-10  .000000000000D+00
     .120000000000D+03  .279687500000D+02  .454126059030D-08  .181350320780D+01
     .128708779812D-05  .108486929676D-01  .589340925217D-05  .515360482216D+04
     .417600000000D+06  .229105353355D-06 -.102941678160D+01 -.176951289177D-06
     .962299979977D+00  .266562500000D+03  .161263882819D+01 -.816926885427D-08
     .335728270144D-09  .100000000000D+01  .172100000000D+04  .000000000000D+00
     .965000000000D+01  .000000000000D+00 -.465661287308D-08  .120000000000D+03
     .410406000000D+06  .400000000000D+01
31 13  1  3 20  0  0.0  .295762903988D-03  .204636307899D-11  .000000000000D+00
     .720000000000D+02  .108125000000D+02  .390766276984D-08 -.948669011095D+00
     .469386577606D-06  .812453217804D-02  .101998448372D-04  .515380466080D+04
     .417600000000D+06 -.100582838058D-06 -.195412056862D+01 -.279396772385D-07
     .980731913912D+00  .196437500000D+03 -.821255457318D+00 -.788747140199D-08
     .964325882329D-11  .100000000000D+01  .172100000000D+04  .000000000000D+00
     .340000000000D+01  .000000000000D+00 -.135041773319D-07  .720000000000D+02
     .410406000000D+06  .400000000000D+01
32 13  1  3 20  0  0.0 -.522880814970D-03 -.341060513165D-11  .000000000000D+00
     .920000000000D+02  .569375000000D+02  .524664711534D-08 -.320732930465D+00
     .293366611004D-05  .116849156329D-01  .611878931522D-05  .515377388382D+04
     .417600000000D+06  .132247805595D-06  .229978202692D+01 -.195577740669D-06
     .949900262930D+00  .258031250000D+03 -.420484711950D+00 -.859178645382D-08
     .233581158164D-09  .100000000000D+01  .172100000000D+04  .000000000000D+00
     .240000000000D+01  .000000000000D+00 -.325962901115D-08  .920000000000D+02
     .410406000000D+06  .400000000000D+01
30 13  1  3 19 59 44.0 -.263323541731D-03  .111413100967D-10  .000000000000D+00
     .350000000000D+02  .279687500000D+02  .454126059030D-08  .181116966329D+01
     .128708779812D-05  .108486879617D-01  .589340925217D-05  .515360481071D+04
     .417584000000D+06  .229105353355D-06 -.102941663531D+01 -.176951289177D-06
     .962299960959D+00  .266562500000D+03  .161263859559D+01 -.816926885427D-08
     .335728270144D-09  .100000000000D+01  .172100000000D+04  .000000000000D+00
     .340000000000D+01  .000000000000D+00 -.465661287308D-08  .350000000000D+02
     .411726000000D+06  .400000000000D+01
13 13  1  3 19 59 44.0  .155237503350D-03 -.284217094304D-11  .000000000000D+00
     .370000000000D+02 -.146250000000D+02  .416195907659D-08  .153029358918D+01
    -.923871994019D-06  .486870505847D-02  .649318099022D-05  .515357215881D+04
     .417584000000D+06  .707805156708D-07 -.292618427159D+01 -.409781932831D-07
     .983558393064D+00  .262031250000D+03  .206782894261D+01 -.797533220460D-08
    -.432875173846D-09  .100000000000D+01  .172100000000D+04  .000000000000D+00
     .240000000000D+01  .000000000000D+00 -.111758708954D-07  .370000000000D+02
     .413346000000D+06  .400000000000D+01
31 13  1  3 19 59 44.0  .295758713037D-03  .193267624127D-11  .000000000000D+00
     .600000000000D+01  .108125000000D+02  .390766276984D-08 -.951002674107D+00
     .469386577606D-06  .812453264371D-02  .101998448372D-04  .515380466270D+04
     .417584000000D+06 -.100582838058D-06 -.195412044281D+01 -.279396772385D-07
     .980731937319D+00  .196437500000D+03 -.821255372468D+00 -.788747140199D-08
     .964325882329D-11  .100000000000D+01  .172100000000D+04  .000000000000D+00
     .240000000000D+01  .000000000000D+00 -.135041773319D-07  .600000000000D+01
     .413706000000D+06  .400000000000D+01
20 13  1  3 19 59 44.0  .787219032645D-04  .136424205266D-11  .000000000000D+00
     .200000000000D+01  .657187500000D+02  .557094633799D-08 -.233897034727D+01
     .339746475220D-05  .544906279538D-02  .676512718201D-05  .515356050491D+04
     .417584000000D+06  .113621354103D-06  .216293519701D+01  .000000000000D+00
     .928517440364D+00  .231875000000D+03  .128111215606D+01 -.853642700502D-08
     .297155234851D-09  .100000000000D+01  .172100000000D+04  .000000000000D+00
     .240000000000D+01  .000000000000D+00 -.791624188423D-08  .200000000000D+01
     .415956000000D+06  .400000000000D+01
